[{"OBJECT_NAME":"CONTECSAT-1","OBJECT_ID":"2024-043V","EPOCH":"2026-03-09T22:02:35.535840","MEAN_MOTION":15.34615346,"ECCENTRICITY":0.00100896,"INCLINATION":97.5476,"RA_OF_ASC_NODE":207.3735,"ARG_OF_PERICENTER":223.9905,"MEAN_ANOMALY":136.0535,"EPHEMERIS_TYPE":0,"CLASSIFICATION_TYPE":"U","NORAD_CAT_ID":59117,"ELEMENT_SET_NO":999,"REV_AT_EPOCH":11201,"BSTAR":0.0004369392,"MEAN_MOTION_DOT":0.00014607,"MEAN_MOTION_DDOT":0},{"OBJECT_NAME":"STARLINK-35540","OBJECT_ID":"2025-240F","EPOCH":"2026-03-09T07:09:25.456320","MEAN_MOTION":15.30192894,"ECCENTRICITY":0.00012047,"INCLINATION":53.1601,"RA_OF_ASC_NODE":64.266,"ARG_OF_PERICENTER":99.8588,"MEAN_ANOMALY":260.2549,"EPHEMERIS_TYPE":0,"CLASSIFICATION_TYPE":"U","NORAD_CAT_ID":66151,"ELEMENT_SET_NO":999,"REV_AT_EPOCH":2193,"BSTAR":0.00087397443,"MEAN_MOTION_DOT":0.00025609,"MEAN_MOTION_DDOT":0}]
